NORAD_CAT_ID,OBJECT_NAME,OBJECT_TYPE,EPOCH,MEAN_MOTION,ECCENTRICITY,INCLINATION,RA_OF_ASC_NODE,ARG_OF_PERICENTER,MEAN_ANOMALY,BSTAR,MEAN_MOTION_DOT,MEAN_MOTION_DDOT,TLE_LINE0,TLE_LINE1,TLE_LINE2,SEMIMAJOR_AXIS,PERIOD,APOGEE,PERIGEE,DECAYED
55962.0,STARLINK-5906,PAYLOAD,2024-02-29 22:47:49,14.98330367,0.0002936,70.0005,327.2157,270.8991,89.1832,1.7579e-05,1.17e-06,0.0,0 STARLINK-5906,1 55962U 23037BA  24060.94988000  .00000117  00000-0  17579-4 0  9994,2 55962  70.0005 327.2157 0002936 270.8991  89.1832 14.98330367 53816,6950.192,96.107,574.097,570.016,0.0
55962.0,STARLINK-5906,PAYLOAD,2024-03-01 03:36:13,14.98335325,0.0002845,70.0006,326.7109,269.8963,90.187,3.6779e-05,3.46e-06,0.0,0 STARLINK-5906,1 55962U 23037BA  24061.15015604  .00000346  00000-0  36779-4 0  9996,2 55962  70.0006 326.7109 0002845 269.8963  90.1870 14.98335325 54188,6950.176,96.107,574.019,570.064,0.0
55962.0,STARLINK-5906,PAYLOAD,2024-03-01 21:13:42,14.98330055,0.0002923,70.0004,324.8592,270.104,89.9784,6.7022e-05,7.07e-06,0.0,0 STARLINK-5906,1 55962U 23037BA  24061.88451701  .00000707  00000-0  67022-4 0  9994,2 55962  70.0004 324.8592 0002923 270.1040  89.9784 14.98330055 53958,6950.193,96.107,574.089,570.026,0.0
55962.0,STARLINK-5906,PAYLOAD,2024-03-02 03:38:14,14.98333744,0.0002853,70.0005,324.186,270.5649,89.5183,9.3053e-05,1.018e-05,0.0,0 STARLINK-5906,1 55962U 23037BA  24062.15155362  .00001018  00000-0  93053-4 0  9998,2 55962  70.0005 324.1860 0002853 270.5649  89.5183 14.98333744 54331,6950.181,96.107,574.029,570.063,0.0
55962.0,STARLINK-5906,PAYLOAD,2024-03-02 19:39:33,14.98367272,0.0002658,70.0012,322.5009,269.6553,90.4301,-0.00038402,-4.676e-05,0.0,0 STARLINK-5906,1 55962U 23037BA  24062.81914135 -.00004676  00000-0 -38402-3 0  9993,2 55962  70.0012 322.5009 0002658 269.6553  90.4301 14.98367272 54439,6950.078,96.105,573.79,570.095,0.0
55962.0,STARLINK-5906,PAYLOAD,2024-03-02 21:15:40,14.9836007,0.0002689,70.0006,322.3347,258.86,101.2257,0.0002573,2.981e-05,0.0,0 STARLINK-5906,1 55962U 23037BA  24062.88588914  .00002981  00000-0  25730-3 0  9997,2 55962  70.0006 322.3347 0002689 258.8600 101.2257 14.98360070 54106,6950.1,96.105,573.834,570.096,0.0
55962.0,STARLINK-5906,PAYLOAD,2024-03-03 03:40:12,14.98362848,0.0002761,70.0005,321.6612,264.0352,96.0492,0.00027423,3.183e-05,0.0,0 STARLINK-5906,1 55962U 23037BA  24063.15292217  .00003183  00000-0  27423-3 0  9992,2 55962  70.0005 321.6612 0002761 264.0352  96.0492 14.98362848 54484,6950.091,96.105,573.875,570.037,0.0
55962.0,STARLINK-5906,PAYLOAD,2024-03-03 10:04:46,14.98339203,0.00029,70.0005,320.9879,275.3825,84.7004,-1.8255e-05,-3.11e-06,0.0,0 STARLINK-5906,1 55962U 23037BA  24063.41998094 -.00000311  00000-0 -18255-4 0  9993,2 55962  70.0005 320.9879 0002900 275.3825  84.7004 14.98339203 54523,6950.164,96.106,574.045,570.014,0.0
55962.0,STARLINK-5906,PAYLOAD,2024-03-03 21:17:44,14.98323711,0.0002707,70.0006,319.8124,264.8275,95.2575,-0.00017492,-2.179e-05,0.0,0 STARLINK-5906,1 55962U 23037BA  24063.88731490 -.00002179  00000-0 -17492-3 0  9994,2 55962  70.0006 319.8124 0002707 264.8275  95.2575 14.98323711 54258,6950.212,96.107,573.959,570.196,0.0
55962.0,STARLINK-5906,PAYLOAD,2024-03-04 02:06:08,14.98324809,0.0002673,70.0005,319.3073,265.4901,94.5953,-0.00015842,-1.982e-05,0.0,0 STARLINK-5906,1 55962U 23037BA  24064.08759414 -.00001982  00000-0 -15842-3 0  9991,2 55962  70.0005 319.3073 0002673 265.4901  94.5953 14.98324809 54622,6950.209,96.107,573.932,570.216,0.0
55962.0,STARLINK-5906,PAYLOAD,2024-03-04 10:06:48,14.98329215,0.0002877,69.9998,318.463,266.6833,93.3996,-0.00012265,-1.556e-05,0.0,0 STARLINK-5906,1 55962U 23037BA  24064.42138969 -.00001556  00000-0 -12265-3 0  9998,2 55962  69.9998 318.4630 0002877 266.6833  93.3996 14.98329215 54330,6950.195,96.107,574.06,570.061,0.0
55962.0,STARLINK-5906,PAYLOAD,2024-03-04 19:43:36,14.98339899,0.000291,69.9999,317.4533,266.6253,93.4573,-0.0003213,-3.926e-05,0.0,0 STARLINK-5906,1 55962U 23037BA  24064.82194946 -.00003926  00000-0 -32130-3 0  9995,2 55962  69.9999 317.4533 0002910 266.6253  93.4573 14.98339899 54731,6950.162,96.106,574.05,570.005,0.0
55962.0,STARLINK-5906,PAYLOAD,2024-03-04 22:55:52,14.98339744,0.0002805,70.0005,317.1176,262.213,97.8711,-0.00028942,-3.545e-05,0.0,0 STARLINK-5906,1 55962U 23037BA  24064.95546777 -.00003545  00000-0 -28942-3 0  9995,2 55962  70.0005 317.1176 0002805 262.2130  97.8711 14.98339744 54417,6950.163,96.106,573.977,570.078,0.0
55962.0,STARLINK-5906,PAYLOAD,2024-03-05 02:08:08,14.98333912,0.0002932,70.0002,316.7803,267.1484,92.9339,-0.00013201,-1.668e-05,0.0,0 STARLINK-5906,1 55962U 23037BA  24065.08898689 -.00001668  00000-0 -13201-3 0  9998,2 55962  70.0002 316.7803 0002932 267.1484  92.9339 14.98333912 54438,6950.181,96.107,574.084,570.008,0.0
55962.0,STARLINK-5906,PAYLOAD,2024-03-05 21:21:46,14.98306437,0.0003189,69.9998,314.7584,268.8063,91.2731,0.00021218,2.438e-05,0.0,0 STARLINK-5906,1 55962U 23037BA  24065.89011621  .00002438  00000-0  21218-3 0  9991,2 55962  69.9998 314.7584 0003189 268.8063  91.2731 14.98306437 54899,6950.266,96.109,574.347,569.914,0.0
55962.0,STARLINK-5906,PAYLOAD,2024-03-06 02:10:10,14.98317775,0.0002539,70.0,314.254,257.8089,102.2786,2.4949e-05,2.05e-06,0.0,0 STARLINK-5906,1 55962U 23037BA  24066.09039615  .00000205  00000-0  24949-4 0  9992,2 55962  70.0000 314.2540 0002539 257.8089 102.2786 14.98317775 54921,6950.231,96.108,573.86,570.331,0.0
55962.0,STARLINK-5906,PAYLOAD,2024-03-06 19:47:39,14.98288335,0.0002715,69.9997,312.4024,267.1985,92.8863,0.00060324,7.104e-05,0.0,0 STARLINK-5906,1 55962U 23037BA  24066.82476606  .00007104  00000-0  60324-3 0  9999,2 55962  69.9997 312.4024 0002715 267.1985  92.8863 14.98288335 55037,6950.322,96.11,574.074,570.3,0.0
55962.0,STARLINK-5906,PAYLOAD,2024-03-07 02:12:11,14.98325707,0.0002884,69.9999,311.7294,267.2917,92.7912,2.2486e-05,1.75e-06,0.0,0 STARLINK-5906,1 55962U 23037BA  24067.09179645  .00000175  00000-0  22486-4 0  9991,2 55962  69.9999 311.7294 0002884 267.2917  92.7912 14.98325707 55076,6950.206,96.107,574.076,570.067,0.0
55962.0,STARLINK-5906,PAYLOAD,2024-03-08 02:14:11,14.98331422,0.0002984,69.9995,309.2059,263.5975,96.4844,0.00010078,1.11e-05,0.0,0 STARLINK-5906,1 55962U 23037BA  24068.09319191  .00001110  00000-0  10078-3 0  9997,2 55962  69.9995 309.2059 0002984 263.5975  96.4844 14.98331422 55220,6950.188,96.107,574.127,569.98,0.0
55962.0,STARLINK-5906,PAYLOAD,2024-03-09 02:16:12,14.98329627,0.0002855,69.9995,306.6813,262.4172,97.6662,3.4474e-05,3.18e-06,0.0,0 STARLINK-5906,1 55962U 23037BA  24069.09459469  .00000318  00000-0  34474-4 0  9997,2 55962  69.9995 306.6813 0002855 262.4172  97.6662 14.98329627 55374,6950.194,96.107,574.043,570.075,0.0
55962.0,STARLINK-5906,PAYLOAD,2024-03-09 08:40:45,14.9833217,0.0002769,69.9997,306.0066,268.6619,91.4223,9.5248e-06,2.1e-07,0.0,0 STARLINK-5906,1 55962U 23037BA  24069.36163408  .00000021  00000-0  95248-5 0  9990,2 55962  69.9997 306.0066 0002769 268.6619  91.4223 14.98332170 55077,6950.186,96.107,573.976,570.127,0.0
55962.0,STARLINK-5906,PAYLOAD,2024-03-09 21:29:49,14.98334524,0.0002774,69.9995,304.6601,266.9977,93.0865,3.9824e-06,-4.5e-07,0.0,0 STARLINK-5906,1 55962U 23037BA  24069.89571115 -.00000045  00000-0  39824-5 0  9991,2 55962  69.9995 304.6601 0002774 266.9977  93.0865 14.98334524 55152,6950.179,96.107,573.972,570.116,0.0
55962.0,STARLINK-5906,PAYLOAD,2024-03-10 08:42:46,14.98332515,0.0002817,69.9991,303.4818,262.927,97.1569,-4.9605e-05,-6.85e-06,0.0,0 STARLINK-5906,1 55962U 23037BA  24070.36303304 -.00000685  00000-0 -49605-4 0  9996,2 55962  69.9991 303.4818 0002817 262.9270  97.1569 14.98332515 55564,6950.185,96.107,574.008,570.092,0.0
55962.0,STARLINK-5906,PAYLOAD,2024-03-10 15:07:18,14.98325734,0.0002723,69.9998,302.8087,269.2658,90.8189,-6.1446e-05,-8.26e-06,0.0,0 STARLINK-5906,1 55962U 23037BA  24070.63007759 -.00000826  00000-0 -61446-4 0  9995,2 55962  69.9998 302.8087 0002723 269.2658  90.8189 14.98325734 55268,6950.206,96.107,573.964,570.179,0.0
55962.0,STARLINK-5906,PAYLOAD,2024-03-10 21:31:51,14.98325258,0.0002734,69.9998,302.1354,269.2917,90.7929,-6.3107e-05,-8.46e-06,0.0,0 STARLINK-5906,1 55962U 23037BA  24070.89711839 -.00000846  00000-0 -63107-4 0  9992,2 55962  69.9998 302.1354 0002734 269.2917  90.7929 14.98325258 55305,6950.208,96.107,573.973,570.172,0.0
55962.0,STARLINK-5906,PAYLOAD,2024-03-11 08:44:47,14.98328972,0.0002701,69.9996,300.957,274.3991,85.6859,-4.1148e-05,-5.84e-06,0.0,0 STARLINK-5906,1 55962U 23037BA  24071.36443638 -.00000584  00000-0 -41148-4 0  9994,2 55962  69.9996 300.9570 0002701 274.3991  85.6859 14.98328972 55718,6950.196,96.107,573.938,570.184,0.0
55962.0,STARLINK-5906,PAYLOAD,2024-03-12 00:46:06,14.98372763,0.0002981,69.9992,299.2734,265.991,94.0908,-0.00063541,-7.675e-05,0.0,0 STARLINK-5906,1 55962U 23037BA  24072.03202545 -.00007675  00000-0 -63541-3 0  9997,2 55962  69.9992 299.2734 0002981 265.9910  94.0908 14.98372763 55810,6950.061,96.104,573.997,569.854,0.0
55962.0,STARLINK-5906,PAYLOAD,2024-03-12 08:46:47,14.98334247,0.0002939,69.999,298.4316,268.8761,91.2061,-6.0844e-05,-8.19e-06,0.0,0 STARLINK-5906,1 55962U 23037BA  24072.36583095 -.00000819  00000-0 -60844-4 0  9992,2 55962  69.9990 298.4316 0002939 268.8761  91.2061 14.98334247 55863,6950.18,96.107,574.087,570.002,0.0
55962.0,STARLINK-5906,PAYLOAD,2024-03-12 15:11:20,14.9832623,0.0002871,69.999,297.7583,270.8537,89.2293,5.9583e-05,6.18e-06,0.0,0 STARLINK-5906,1 55962U 23037BA  24072.63287327  .00000618  00000-0  59583-4 0  9994,2 55962  69.9990 297.7583 0002871 270.8537  89.2293 14.98326230 55564,6950.205,96.107,574.065,570.074,0.0
55962.0,STARLINK-5906,PAYLOAD,2024-03-13 00:48:08,14.98329105,0.0002875,69.9989,296.7483,270.8124,89.2705,5.2421e-05,5.33e-06,0.0,0 STARLINK-5906,1 55962U 23037BA  24073.03343194  .00000533  00000-0  52421-4 0  9994,2 55962  69.9989 296.7483 0002875 270.8124  89.2705 14.98329105 55625,6950.196,96.107,574.059,570.062,0.0
